{
  "links" : {
    "next" : "https://api.nasa.gov/neo/rest/v1/feed?start_date=2008-03-16&end_date=2008-03-16&detailed=true&api_key=t0TVs3DtDT2H8Oy2Zy8m2eVrNsAVKAexjcZXUckd",
    "prev" : "https://api.nasa.gov/neo/rest/v1/feed?start_date=2008-03-14&end_date=2008-03-14&detailed=true&api_key=t0TVs3DtDT2H8Oy2Zy8m2eVrNsAVKAexjcZXUckd",
    "self" : "https://api.nasa.gov/neo/rest/v1/feed?start_date=2008-03-15&end_date=2008-03-15&detailed=true&api_key=t0TVs3DtDT2H8Oy2Zy8m2eVrNsAVKAexjcZXUckd"
  },
  "element_count" : 3,
  "near_earth_objects" : {
    "2008-03-15" : [ {
      "links" : {
        "self" : "https://api.nasa.gov/neo/rest/v1/neo/3404526?api_key=t0TVs3DtDT2H8Oy2Zy8m2eVrNsAVKAexjcZXUckd"
      },
      "neo_reference_id" : "3404526",
      "name" : "(2008 EL)",
      "nasa_jpl_url" : "http://ssd.jpl.nasa.gov/sbdb.cgi?sstr=3404526",
      "absolute_magnitude_h" : 22.2,
      "estimated_diameter" : {
        "kilometers" : {
          "estimated_diameter_min" : 0.096506147,
          "estimated_diameter_max" : 0.2157943048
        },
        "meters" : {
          "estimated_diameter_min" : 96.5061469579,
          "estimated_diameter_max" : 215.7943048444
        },
        "miles" : {
          "estimated_diameter_min" : 0.059966121,
          "estimated_diameter_max" : 0.134088323
        },
        "feet" : {
          "estimated_diameter_min" : 316.6212271853,
          "estimated_diameter_max" : 707.9865871058
        }
      },
      "is_potentially_hazardous_asteroid" : false,
      "close_approach_data" : [ {
        "close_approach_date" : "2008-03-15",
        "epoch_date_close_approach" : 1205564400000,
        "relative_velocity" : {
          "kilometers_per_second" : "16.3445066697",
          "kilometers_per_hour" : "58840.2240107785",
          "miles_per_hour" : "36561.026969364"
        },
        "miss_distance" : {
          "astronomical" : "0.0417237876",
          "lunar" : "16.2305526733",
          "kilometers" : "6241790",
          "miles" : "3878468.5"
        },
        "orbiting_body" : "Earth"
      } ],
      "orbital_data" : {
        "orbit_id" : "20",
        "orbit_determination_date" : "2017-04-06 09:04:11",
        "orbit_uncertainty" : "1",
        "minimum_orbit_intersection" : ".0100078",
        "jupiter_tisserand_invariant" : "5.491",
        "epoch_osculation" : "2458000.5",
        "eccentricity" : ".5387930363497254",
        "semi_major_axis" : "1.103329872136912",
        "inclination" : "3.156102565003792",
        "ascending_node_longitude" : "184.5960860435543",
        "orbital_period" : "423.3080152756132",
        "perihelion_distance" : ".5088634202329109",
        "perihelion_argument" : "102.4932858849819",
        "aphelion_distance" : "1.697796324040913",
        "perihelion_time" : "2457986.058530900470",
        "mean_anomaly" : "12.28166887519436",
        "mean_motion" : ".8504445628453462",
        "equinox" : "J2000"
      }
    }, {
      "links" : {
        "self" : "https://api.nasa.gov/neo/rest/v1/neo/3406893?api_key=t0TVs3DtDT2H8Oy2Zy8m2eVrNsAVKAexjcZXUckd"
      },
      "neo_reference_id" : "3406893",
      "name" : "(2008 FC)",
      "nasa_jpl_url" : "http://ssd.jpl.nasa.gov/sbdb.cgi?sstr=3406893",
      "absolute_magnitude_h" : 24.8,
      "estimated_diameter" : {
        "kilometers" : {
          "estimated_diameter_min" : 0.0291443905,
          "estimated_diameter_max" : 0.0651688382
        },
        "meters" : {
          "estimated_diameter_min" : 29.1443904535,
          "estimated_diameter_max" : 65.1688382168
        },
        "miles" : {
          "estimated_diameter_min" : 0.018109479,
          "estimated_diameter_max" : 0.0404940262
        },
        "feet" : {
          "estimated_diameter_min" : 95.6180819754,
          "estimated_diameter_max" : 213.8085311752
        }
      },
      "is_potentially_hazardous_asteroid" : false,
      "close_approach_data" : [ {
        "close_approach_date" : "2008-03-15",
        "epoch_date_close_approach" : 1205564400000,
        "relative_velocity" : {
          "kilometers_per_second" : "5.7549580308",
          "kilometers_per_hour" : "20717.848910961",
          "miles_per_hour" : "12873.2656191469"
        },
        "miss_distance" : {
          "astronomical" : "0.0130344979",
          "lunar" : "5.0704197884",
          "kilometers" : "1949933.25",
          "miles" : "1211632.375"
        },
        "orbiting_body" : "Earth"
      } ],
      "orbital_data" : {
        "orbit_id" : "12",
        "orbit_determination_date" : "2017-04-06 09:03:56",
        "orbit_uncertainty" : "6",
        "minimum_orbit_intersection" : ".00552681",
        "jupiter_tisserand_invariant" : "4.442",
        "epoch_osculation" : "2458000.5",
        "eccentricity" : ".344348652220014",
        "semi_major_axis" : "1.515774857859465",
        "inclination" : "5.436935534115318",
        "ascending_node_longitude" : "170.6809057232388",
        "orbital_period" : "681.6327924573982",
        "perihelion_distance" : ".9938198284865745",
        "perihelion_argument" : "350.0169086587694",
        "aphelion_distance" : "2.037729887232354",
        "perihelion_time" : "2457937.354267759831",
        "mean_anomaly" : "33.35001463838995",
        "mean_motion" : ".528143604567704",
        "equinox" : "J2000"
      }
    }, {
      "links" : {
        "self" : "https://api.nasa.gov/neo/rest/v1/neo/3610358?api_key=t0TVs3DtDT2H8Oy2Zy8m2eVrNsAVKAexjcZXUckd"
      },
      "neo_reference_id" : "3610358",
      "name" : "(2012 TK123)",
      "nasa_jpl_url" : "http://ssd.jpl.nasa.gov/sbdb.cgi?sstr=3610358",
      "absolute_magnitude_h" : 18.9,
      "estimated_diameter" : {
        "kilometers" : {
          "estimated_diameter_min" : 0.4411182,
          "estimated_diameter_max" : 0.9863702813
        },
        "meters" : {
          "estimated_diameter_min" : 441.1181999969,
          "estimated_diameter_max" : 986.3702813054
        },
        "miles" : {
          "estimated_diameter_min" : 0.2740980571,
          "estimated_diameter_max" : 0.6129018881
        },
        "feet" : {
          "estimated_diameter_min" : 1447.2382352778,
          "estimated_diameter_max" : 3236.1230737181
        }
      },
      "is_potentially_hazardous_asteroid" : false,
      "close_approach_data" : [ {
        "close_approach_date" : "2008-03-15",
        "epoch_date_close_approach" : 1205564400000,
        "relative_velocity" : {
          "kilometers_per_second" : "20.3024315912",
          "kilometers_per_hour" : "73088.753728482",
          "miles_per_hour" : "45414.5092264559"
        },
        "miss_distance" : {
          "astronomical" : "0.441408039",
          "lunar" : "171.7077331543",
          "kilometers" : "66033704",
          "miles" : "41031440"
        },
        "orbiting_body" : "Earth"
      } ],
      "orbital_data" : {
        "orbit_id" : "22",
        "orbit_determination_date" : "2017-09-16 06:18:39",
        "orbit_uncertainty" : "0",
        "minimum_orbit_intersection" : ".0797107",
        "jupiter_tisserand_invariant" : "3.625",
        "epoch_osculation" : "2458000.5",
        "eccentricity" : ".6872155315752198",
        "semi_major_axis" : "1.814799732405519",
        "inclination" : "27.92413357540924",
        "ascending_node_longitude" : "30.87949107095691",
        "orbital_period" : "892.9794953469265",
        "perihelion_distance" : ".5676411695978938",
        "perihelion_argument" : "104.3815070963002",
        "aphelion_distance" : "3.061958295213145",
        "perihelion_time" : "2458089.413694502803",
        "mean_anomaly" : "324.154910400744",
        "mean_motion" : ".4031447551437207",
        "equinox" : "J2000"
      }
    } ]
  }
}